IRIDIUM 112             
1 41925U 17003J   25186.66308304  .00000188  00000+0  60237-4 0  9992
2 41925  86.3957 233.0471 0002335  94.3363 265.8100 14.34215826443607
IRIDIUM 111             
1 41926U 17003K   25186.65039687  .00000054  00000+0  12253-4 0  9994
2 41926  86.3958 233.1153 0002269  88.6581 271.4875 14.34217483443581
IRIDIUM 113             
1 42803U 17039A   25186.83966711  .00000015  00000+0 -17408-5 0  9991
2 42803  86.3976 106.9661 0002476  85.8919 274.2560 14.34217704421541
IRIDIUM 123             
1 42804U 17039B   25187.22998768 -.00000001  00000+0 -74974-5 0  9990
2 42804  86.3999 138.2665 0002144  75.9864 284.1570 14.34217558420367
IRIDIUM 120             
1 42805U 17039C   25186.83332332  .00000017  00000+0 -88672-6 0  9993
2 42805  86.3963 106.7958 0001788  78.5275 281.6122 14.34217551421530
IRIDIUM 115             
1 42806U 17039D   25187.15768583  .00000300  00000+0  83314-4 0  9991
2 42806  86.4503 106.7418 0002313  65.4441 294.7001 14.43280404424359
IRIDIUM 118             
1 42807U 17039E   25186.91285326  .00000067  00000+0  16736-4 0  9998
2 42807  86.3994 138.3983 0002482  87.2212 272.9268 14.34216308420313
IRIDIUM 117             
1 42808U 17039F   25186.86211781  .00000038  00000+0  65746-5 0  9991
2 42808  86.3993 138.3804 0002420  79.3505 280.7963 14.34217858420336
