<?xml version="1.0" encoding="UTF-8"?>
<ndm xmlns:xsi="http://www.w3.org/2001/XMLSchema-instance" xsi:noNamespaceSchemaLocation="https://sanaregistry.org/r/ndmxml_unqualified/ndmxml-2.0.0-master-2.0.xsd">
<omm id="CCSDS_OMM_VERS" version="2.0">
<header><CREATION_DATE/><ORIGINATOR/></header><body><segment><metadata><OBJECT_NAME>IRIDIUM 112</OBJECT_NAME><OBJECT_ID>2017-003J</OBJECT_ID><CENTER_NAME>EARTH</CENTER_NAME><REF_FRAME>TEME</REF_FRAME><TIME_SYSTEM>UTC</TIME_SYSTEM><MEAN_ELEMENT_THEORY>SGP4</MEAN_ELEMENT_THEORY></metadata><data><meanElements><EPOCH>2025-07-05T15:54:50.374656</EPOCH><MEAN_MOTION>14.34215826</MEAN_MOTION><ECCENTRICITY>.0002335</ECCENTRICITY><INCLINATION>86.3957</INCLINATION><RA_OF_ASC_NODE>233.0471</RA_OF_ASC_NODE><ARG_OF_PERICENTER>94.3363</ARG_OF_PERICENTER><MEAN_ANOMALY>265.8100</MEAN_ANOMALY></meanElements><tleParameters><EPHEMERIS_TYPE>0</EPHEMERIS_TYPE><CLASSIFICATION_TYPE>U</CLASSIFICATION_TYPE><NORAD_CAT_ID>41925</NORAD_CAT_ID><ELEMENT_SET_NO>999</ELEMENT_SET_NO><REV_AT_EPOCH>44360</REV_AT_EPOCH><BSTAR>.60237E-4</BSTAR><MEAN_MOTION_DOT>.188E-5</MEAN_MOTION_DOT><MEAN_MOTION_DDOT>0</MEAN_MOTION_DDOT></tleParameters></data></segment></body></omm>
<omm id="CCSDS_OMM_VERS" version="2.0">
<header><CREATION_DATE/><ORIGINATOR/></header><body><segment><metadata><OBJECT_NAME>IRIDIUM 111</OBJECT_NAME><OBJECT_ID>2017-003K</OBJECT_ID><CENTER_NAME>EARTH</CENTER_NAME><REF_FRAME>TEME</REF_FRAME><TIME_SYSTEM>UTC</TIME_SYSTEM><MEAN_ELEMENT_THEORY>SGP4</MEAN_ELEMENT_THEORY></metadata><data><meanElements><EPOCH>2025-07-05T15:36:34.289568</EPOCH><MEAN_MOTION>14.34217483</MEAN_MOTION><ECCENTRICITY>.0002269</ECCENTRICITY><INCLINATION>86.3958</INCLINATION><RA_OF_ASC_NODE>233.1153</RA_OF_ASC_NODE><ARG_OF_PERICENTER>88.6581</ARG_OF_PERICENTER><MEAN_ANOMALY>271.4875</MEAN_ANOMALY></meanElements><tleParameters><EPHEMERIS_TYPE>0</EPHEMERIS_TYPE><CLASSIFICATION_TYPE>U</CLASSIFICATION_TYPE><NORAD_CAT_ID>41926</NORAD_CAT_ID><ELEMENT_SET_NO>999</ELEMENT_SET_NO><REV_AT_EPOCH>44358</REV_AT_EPOCH><BSTAR>.12253E-4</BSTAR><MEAN_MOTION_DOT>.54E-6</MEAN_MOTION_DOT><MEAN_MOTION_DDOT>0</MEAN_MOTION_DDOT></tleParameters></data></segment></body></omm>
<omm id="CCSDS_OMM_VERS" version="2.0">
<header><CREATION_DATE/><ORIGINATOR/></header><body><segment><metadata><OBJECT_NAME>IRIDIUM 113</OBJECT_NAME><OBJECT_ID>2017-039A</OBJECT_ID><CENTER_NAME>EARTH</CENTER_NAME><REF_FRAME>TEME</REF_FRAME><TIME_SYSTEM>UTC</TIME_SYSTEM><MEAN_ELEMENT_THEORY>SGP4</MEAN_ELEMENT_THEORY></metadata><data><meanElements><EPOCH>2025-07-05T20:09:07.238304</EPOCH><MEAN_MOTION>14.34217704</MEAN_MOTION><ECCENTRICITY>.0002476</ECCENTRICITY><INCLINATION>86.3976</INCLINATION><RA_OF_ASC_NODE>106.9661</RA_OF_ASC_NODE><ARG_OF_PERICENTER>85.8919</ARG_OF_PERICENTER><MEAN_ANOMALY>274.2560</MEAN_ANOMALY></meanElements><tleParameters><EPHEMERIS_TYPE>0</EPHEMERIS_TYPE><CLASSIFICATION_TYPE>U</CLASSIFICATION_TYPE><NORAD_CAT_ID>42803</NORAD_CAT_ID><ELEMENT_SET_NO>999</ELEMENT_SET_NO><REV_AT_EPOCH>42154</REV_AT_EPOCH><BSTAR>-.17408E-5</BSTAR><MEAN_MOTION_DOT>.15E-6</MEAN_MOTION_DOT><MEAN_MOTION_DDOT>0</MEAN_MOTION_DDOT></tleParameters></data></segment></body></omm>
<omm id="CCSDS_OMM_VERS" version="2.0">
<header><CREATION_DATE/><ORIGINATOR/></header><body><segment><metadata><OBJECT_NAME>IRIDIUM 123</OBJECT_NAME><OBJECT_ID>2017-039B</OBJECT_ID><CENTER_NAME>EARTH</CENTER_NAME><REF_FRAME>TEME</REF_FRAME><TIME_SYSTEM>UTC</TIME_SYSTEM><MEAN_ELEMENT_THEORY>SGP4</MEAN_ELEMENT_THEORY></metadata><data><meanElements><EPOCH>2025-07-06T05:31:10.935552</EPOCH><MEAN_MOTION>14.34217558</MEAN_MOTION><ECCENTRICITY>.0002144</ECCENTRICITY><INCLINATION>86.3999</INCLINATION><RA_OF_ASC_NODE>138.2665</RA_OF_ASC_NODE><ARG_OF_PERICENTER>75.9864</ARG_OF_PERICENTER><MEAN_ANOMALY>284.1570</MEAN_ANOMALY></meanElements><tleParameters><EPHEMERIS_TYPE>0</EPHEMERIS_TYPE><CLASSIFICATION_TYPE>U</CLASSIFICATION_TYPE><NORAD_CAT_ID>42804</NORAD_CAT_ID><ELEMENT_SET_NO>999</ELEMENT_SET_NO><REV_AT_EPOCH>42036</REV_AT_EPOCH><BSTAR>-.74974E-5</BSTAR><MEAN_MOTION_DOT>-.1E-7</MEAN_MOTION_DOT><MEAN_MOTION_DDOT>0</MEAN_MOTION_DDOT></tleParameters></data></segment></body></omm>
<omm id="CCSDS_OMM_VERS" version="2.0">
<header><CREATION_DATE/><ORIGINATOR/></header><body><segment><metadata><OBJECT_NAME>IRIDIUM 120</OBJECT_NAME><OBJECT_ID>2017-039C</OBJECT_ID><CENTER_NAME>EARTH</CENTER_NAME><REF_FRAME>TEME</REF_FRAME><TIME_SYSTEM>UTC</TIME_SYSTEM><MEAN_ELEMENT_THEORY>SGP4</MEAN_ELEMENT_THEORY></metadata><data><meanElements><EPOCH>2025-07-05T19:59:59.134848</EPOCH><MEAN_MOTION>14.34217551</MEAN_MOTION><ECCENTRICITY>.0001788</ECCENTRICITY><INCLINATION>86.3963</INCLINATION><RA_OF_ASC_NODE>106.7958</RA_OF_ASC_NODE><ARG_OF_PERICENTER>78.5275</ARG_OF_PERICENTER><MEAN_ANOMALY>281.6122</MEAN_ANOMALY></meanElements><tleParameters><EPHEMERIS_TYPE>0</EPHEMERIS_TYPE><CLASSIFICATION_TYPE>U</CLASSIFICATION_TYPE><NORAD_CAT_ID>42805</NORAD_CAT_ID><ELEMENT_SET_NO>999</ELEMENT_SET_NO><REV_AT_EPOCH>42153</REV_AT_EPOCH><BSTAR>-.88672E-6</BSTAR><MEAN_MOTION_DOT>.17E-6</MEAN_MOTION_DOT><MEAN_MOTION_DDOT>0</MEAN_MOTION_DDOT></tleParameters></data></segment></body></omm>
<omm id="CCSDS_OMM_VERS" version="2.0">
<header><CREATION_DATE/><ORIGINATOR/></header><body><segment><metadata><OBJECT_NAME>IRIDIUM 115</OBJECT_NAME><OBJECT_ID>2017-039D</OBJECT_ID><CENTER_NAME>EARTH</CENTER_NAME><REF_FRAME>TEME</REF_FRAME><TIME_SYSTEM>UTC</TIME_SYSTEM><MEAN_ELEMENT_THEORY>SGP4</MEAN_ELEMENT_THEORY></metadata><data><meanElements><EPOCH>2025-07-06T03:47:04.055712</EPOCH><MEAN_MOTION>14.43280404</MEAN_MOTION><ECCENTRICITY>.0002313</ECCENTRICITY><INCLINATION>86.4503</INCLINATION><RA_OF_ASC_NODE>106.7418</RA_OF_ASC_NODE><ARG_OF_PERICENTER>65.4441</ARG_OF_PERICENTER><MEAN_ANOMALY>294.7001</MEAN_ANOMALY></meanElements><tleParameters><EPHEMERIS_TYPE>0</EPHEMERIS_TYPE><CLASSIFICATION_TYPE>U</CLASSIFICATION_TYPE><NORAD_CAT_ID>42806</NORAD_CAT_ID><ELEMENT_SET_NO>999</ELEMENT_SET_NO><REV_AT_EPOCH>42435</REV_AT_EPOCH><BSTAR>.83314E-4</BSTAR><MEAN_MOTION_DOT>.3E-5</MEAN_MOTION_DOT><MEAN_MOTION_DDOT>0</MEAN_MOTION_DDOT></tleParameters></data></segment></body></omm>
<omm id="CCSDS_OMM_VERS" version="2.0">
<header><CREATION_DATE/><ORIGINATOR/></header><body><segment><metadata><OBJECT_NAME>IRIDIUM 118</OBJECT_NAME><OBJECT_ID>2017-039E</OBJECT_ID><CENTER_NAME>EARTH</CENTER_NAME><REF_FRAME>TEME</REF_FRAME><TIME_SYSTEM>UTC</TIME_SYSTEM><MEAN_ELEMENT_THEORY>SGP4</MEAN_ELEMENT_THEORY></metadata><data><meanElements><EPOCH>2025-07-05T21:54:30.521664</EPOCH><MEAN_MOTION>14.34216308</MEAN_MOTION><ECCENTRICITY>.0002482</ECCENTRICITY><INCLINATION>86.3994</INCLINATION><RA_OF_ASC_NODE>138.3983</RA_OF_ASC_NODE><ARG_OF_PERICENTER>87.2212</ARG_OF_PERICENTER><MEAN_ANOMALY>272.9268</MEAN_ANOMALY></meanElements><tleParameters><EPHEMERIS_TYPE>0</EPHEMERIS_TYPE><CLASSIFICATION_TYPE>U</CLASSIFICATION_TYPE><NORAD_CAT_ID>42807</NORAD_CAT_ID><ELEMENT_SET_NO>999</ELEMENT_SET_NO><REV_AT_EPOCH>42031</REV_AT_EPOCH><BSTAR>.16736E-4</BSTAR><MEAN_MOTION_DOT>.67E-6</MEAN_MOTION_DOT><MEAN_MOTION_DDOT>0</MEAN_MOTION_DDOT></tleParameters></data></segment></body></omm>
<omm id="CCSDS_OMM_VERS" version="2.0">
<header><CREATION_DATE/><ORIGINATOR/></header><body><segment><metadata><OBJECT_NAME>IRIDIUM 117</OBJECT_NAME><OBJECT_ID>2017-039F</OBJECT_ID><CENTER_NAME>EARTH</CENTER_NAME><REF_FRAME>TEME</REF_FRAME><TIME_SYSTEM>UTC</TIME_SYSTEM><MEAN_ELEMENT_THEORY>SGP4</MEAN_ELEMENT_THEORY></metadata><data><meanElements><EPOCH>2025-07-05T20:41:26.978784</EPOCH><MEAN_MOTION>14.34217858</MEAN_MOTION><ECCENTRICITY>.000242</ECCENTRICITY><INCLINATION>86.3993</INCLINATION><RA_OF_ASC_NODE>138.3804</RA_OF_ASC_NODE><ARG_OF_PERICENTER>79.3505</ARG_OF_PERICENTER><MEAN_ANOMALY>280.7963</MEAN_ANOMALY></meanElements><tleParameters><EPHEMERIS_TYPE>0</EPHEMERIS_TYPE><CLASSIFICATION_TYPE>U</CLASSIFICATION_TYPE><NORAD_CAT_ID>42808</NORAD_CAT_ID><ELEMENT_SET_NO>999</ELEMENT_SET_NO><REV_AT_EPOCH>42033</REV_AT_EPOCH><BSTAR>.65746E-5</BSTAR><MEAN_MOTION_DOT>.38E-6</MEAN_MOTION_DOT><MEAN_MOTION_DDOT>0</MEAN_MOTION_DDOT></tleParameters></data></segment></body></omm>

</ndm>
